NORAD_CAT_ID,OBJECT_NAME,OBJECT_TYPE,EPOCH,MEAN_MOTION,ECCENTRICITY,INCLINATION,RA_OF_ASC_NODE,ARG_OF_PERICENTER,MEAN_ANOMALY,BSTAR,MEAN_MOTION_DOT,MEAN_MOTION_DDOT,TLE_LINE0,TLE_LINE1,TLE_LINE2,SEMIMAJOR_AXIS,PERIOD,APOGEE,PERIGEE,DECAYED
53870.0,STARLINK-4732,PAYLOAD,2024-07-26 13:34:40,15.0883823,9.65e-05,53.2167,37.7103,89.8194,270.2909,5.6978e-05,6.19e-06,0.0,0 STARLINK-4732,1 53870U 22114BE  24208.56574385  .00000619  00000-0  56978-4 0  9997,2 53870  53.2167  37.7103 0000965  89.8194 270.2909 15.08838230104157,6917.886,95.438,540.418,539.083,0.0
53870.0,STARLINK-4732,PAYLOAD,2024-07-26 19:56:11,15.08854683,0.0001405,53.2202,36.5266,89.1621,270.9532,0.00011158,1.489e-05,0.0,0 STARLINK-4732,1 53870U 22114BE  24208.83069193  .00001489  00000-0  11158-3 0  9999,2 53870  53.2202  36.5266 0001405  89.1621 270.9532 15.08854683103655,6917.836,95.437,540.672,538.729,0.0
53870.0,STARLINK-4732,PAYLOAD,2024-07-26 21:31:34,15.08854154,0.0001237,53.2208,36.23,85.8661,274.2472,9.521e-05,1.228e-05,0.0,0 STARLINK-4732,1 53870U 22114BE  24208.89693224  .00001228  00000-0  95210-4 0  9996,2 53870  53.2208  36.2300 0001237  85.8661 274.2472 15.08854154104202,6917.837,95.437,540.558,538.846,0.0
53870.0,STARLINK-4732,PAYLOAD,2024-07-27 11:50:04,15.08829776,0.0001464,53.2175,33.5499,74.0331,286.0822,3.1422e-05,2.12e-06,0.0,0 STARLINK-4732,1 53870U 22114BE  24209.49311159  .00000212  00000-0  31422-4 0  9994,2 53870  53.2175  33.5499 0001464  74.0331 286.0822 15.08829776103751,6917.912,95.438,540.789,538.764,0.0
53870.0,STARLINK-4732,PAYLOAD,2024-07-27 16:36:14,15.08834873,0.0001294,53.217,32.6563,80.1283,279.9855,-6.2593e-06,-3.87e-06,0.0,0 STARLINK-4732,1 53870U 22114BE  24209.69183035 -.00000387  00000-0 -62593-5 0  9995,2 53870  53.2170  32.6563 0001294  80.1283 279.9855 15.08834873104328,6917.896,95.438,540.656,538.866,0.0
53870.0,STARLINK-4732,PAYLOAD,2024-07-28 05:19:19,15.08835932,0.0001517,53.2172,30.2767,84.3911,275.7254,8.8958e-05,1.128e-05,0.0,0 STARLINK-4732,1 53870U 22114BE  24210.22174895  .00001128  00000-0  88958-4 0  9994,2 53870  53.2172  30.2767 0001517  84.3911 275.7254 15.08835932103864,6917.893,95.438,540.807,538.708,0.0
53870.0,STARLINK-4732,PAYLOAD,2024-07-28 19:37:46,15.08855362,0.0001257,53.2178,27.6022,84.1639,275.9496,6.8295e-05,8e-06,0.0,0 STARLINK-4732,1 53870U 22114BE  24210.81789711  .00000800  00000-0  68295-4 0  9996,2 53870  53.2178  27.6022 0001257  84.1639 275.9496 15.08855362103959,6917.833,95.437,540.568,538.829,0.0
53870.0,STARLINK-4732,PAYLOAD,2024-07-29 21:03:56,15.08845217,0.0001381,53.2177,22.8429,81.132,278.9828,0.000156,2.196e-05,0.0,0 STARLINK-4732,1 53870U 22114BE  24211.87774173  .00002196  00000-0  15600-3 0  9990,2 53870  53.2177  22.8429 0001381  81.1320 278.9828 15.08845217104117,6917.864,95.437,540.685,538.774,0.0
53870.0,STARLINK-4732,PAYLOAD,2024-07-30 05:00:52,15.08837964,0.0001176,53.2182,21.3546,82.2564,277.8562,0.0001491,2.086e-05,0.0,0 STARLINK-4732,1 53870U 22114BE  24212.20894434  .00002086  00000-0  14910-3 0  9992,2 53870  53.2182  21.3546 0001176  82.2564 277.8562 15.08837964104169,6917.887,95.438,540.565,538.938,0.0
53870.0,STARLINK-4732,PAYLOAD,2024-07-30 20:54:44,15.08846266,0.0001298,53.2165,18.3806,89.7724,270.3417,-1.6039e-05,-5.43e-06,0.0,0 STARLINK-4732,1 53870U 22114BE  24212.87134283 -.00000543  00000-0 -16039-4 0  9997,2 53870  53.2165  18.3806 0001298  89.7724 270.3417 15.08846266104803,6917.861,95.437,540.624,538.828,0.0
53870.0,STARLINK-4732,PAYLOAD,2024-07-31 14:23:59,15.08835591,0.000155,53.2154,15.1063,96.7227,263.3941,1.9607e-05,2.4e-07,0.0,0 STARLINK-4732,1 53870U 22114BE  24213.59998928  .00000024  00000-0  19607-4 0  9997,2 53870  53.2154  15.1063 0001550  96.7227 263.3941 15.08835591104913,6917.894,95.438,540.831,538.687,0.0
53870.0,STARLINK-4732,PAYLOAD,2024-07-31 17:34:45,15.08836787,0.0001369,53.2167,14.5137,89.9523,270.1626,5.6013e-05,6.04e-06,0.0,0 STARLINK-4732,1 53870U 22114BE  24213.73246809  .00000604  00000-0  56013-4 0  9993,2 53870  53.2167  14.5137 0001369  89.9523 270.1626 15.08836787104399,6917.89,95.438,540.702,538.808,0.0
53870.0,STARLINK-4732,PAYLOAD,2024-08-01 11:03:59,15.08842324,0.0001266,53.2178,11.2433,94.1235,265.9902,0.0001154,1.549e-05,0.0,0 STARLINK-4732,1 53870U 22114BE  24214.46110412  .00001549  00000-0  11540-3 0  9998,2 53870  53.2178  11.2433 0001266  94.1235 265.9902 15.08842324105044,6917.873,95.437,540.614,538.862,0.0
53870.0,STARLINK-4732,PAYLOAD,2024-08-01 17:25:30,15.08856636,0.00012,53.2173,10.0509,98.2951,261.8177,0.00026367,3.913e-05,0.0,0 STARLINK-4732,1 53870U 22114BE  24214.72605014  .00003913  00000-0  26367-3 0  9994,2 53870  53.2173  10.0509 0001200  98.2951 261.8177 15.08856636104542,6917.83,95.437,540.525,538.864,0.0
53870.0,STARLINK-4732,PAYLOAD,2024-08-02 14:05:33,15.08835895,0.0001292,53.2182,6.1918,87.2742,272.8398,3.977e-05,3.45e-06,0.0,0 STARLINK-4732,1 53870U 22114BE  24215.58719275  .00000345  00000-0  39770-4 0  9993,2 53870  53.2182   6.1918 0001292  87.2742 272.8398 15.08835895105215,6917.893,95.438,540.652,538.864,0.0
53870.0,STARLINK-4732,PAYLOAD,2024-08-02 18:51:42,15.08836298,0.0001291,53.218,5.2981,78.0286,282.085,3.012e-05,1.91e-06,0.0,0 STARLINK-4732,1 53870U 22114BE  24215.78591204  .00000191  00000-0  30120-4 0  9994,2 53870  53.2180   5.2981 0001291  78.0286 282.0850 15.08836298104700,6917.892,95.438,540.65,538.864,0.0
53870.0,STARLINK-4732,PAYLOAD,2024-08-03 13:56:21,15.08788447,0.000218,53.2173,1.7287,85.1261,274.998,0.00081632,0.00012709,0.0,0 STARLINK-4732,1 53870U 22114BE  24216.58080379  .00012709  00000-0  81632-3 0  9990,2 53870  53.2173   1.7287 0002180  85.1261 274.9980 15.08788447105361,6918.038,95.441,541.411,538.395,0.0
53870.0,STARLINK-4732,PAYLOAD,2024-08-03 18:42:28,15.08857688,0.0002437,53.2184,0.8372,49.4878,310.6326,0.0001364,1.884e-05,0.0,0 STARLINK-4732,1 53870U 22114BE  24216.77949970  .00001884  00000-0  13640-3 0  9998,2 53870  53.2184   0.8372 0002437  49.4878 310.6326 15.08857688104859,6917.826,95.436,541.377,538.005,0.0
53870.0,STARLINK-4732,PAYLOAD,2024-08-04 02:39:25,15.08834727,0.000167,53.2178,359.3501,83.1348,276.9834,9.638e-05,1.246e-05,0.0,0 STARLINK-4732,1 53870U 22114BE  24217.11071349  .00001246  00000-0  96380-4 0  9998,2 53870  53.2178 359.3501 0001670  83.1348 276.9834 15.08834727104906,6917.897,95.438,540.917,538.606,0.0
53870.0,STARLINK-4732,PAYLOAD,2024-08-04 13:47:07,15.08837905,0.0001615,53.2173,357.2678,82.9419,277.1757,0.00010453,1.376e-05,0.0,0 STARLINK-4732,1 53870U 22114BE  24217.57439303  .00001376  00000-0  10453-3 0  9996,2 53870  53.2173 357.2678 0001615  82.9419 277.1757 15.08837905105514,6917.887,95.438,540.869,538.635,0.0
53870.0,STARLINK-4732,PAYLOAD,2024-08-04 18:33:16,15.08852271,0.0001516,53.2182,356.3789,91.276,268.8406,0.00032158,4.835e-05,0.0,0 STARLINK-4732,1 53870U 22114BE  24217.77310463  .00004835  00000-0  32158-3 0  9992,2 53870  53.2182 356.3789 0001516  91.2760 268.8406 15.08852271105004,6917.843,95.437,540.757,538.659,0.0
53870.0,STARLINK-4732,PAYLOAD,2024-08-05 15:13:16,15.088529,0.0001216,53.2176,352.5107,85.0978,275.0153,0.00019083,2.752e-05,0.0,0 STARLINK-4732,1 53870U 22114BE  24218.63421962  .00002752  00000-0  19083-3 0  9993,2 53870  53.2176 352.5107 0001216  85.0978 275.0153 15.08852900105130,6917.841,95.437,540.547,538.865,0.0
53870.0,STARLINK-4732,PAYLOAD,2024-08-06 02:20:58,15.08847002,0.0001631,53.2182,350.4304,92.6777,267.4402,5.4417e-05,5.78e-06,0.0,0 STARLINK-4732,1 53870U 22114BE  24219.09790052  .00000578  00000-0  54417-4 0  9998,2 53870  53.2182 350.4304 0001631  92.6777 267.4402 15.08847002105202,6917.859,95.437,540.852,538.596,0.0
53870.0,STARLINK-4732,PAYLOAD,2024-08-06 15:04:04,15.0882265,0.0001451,53.2178,348.0503,103.2929,256.8225,-0.0002913,-4.919e-05,0.0,0 STARLINK-4732,1 53870U 22114BE  24219.62783207 -.00004919  00000-0 -29130-3 0  9999,2 53870  53.2178 348.0503 0001451 103.2929 256.8225 15.08822650105824,6917.933,95.439,540.802,538.795,0.0
53870.0,STARLINK-4732,PAYLOAD,2024-08-06 18:14:50,15.0882804,0.0001754,53.2172,347.4544,110.0578,250.0603,-0.00024848,-4.239e-05,0.0,0 STARLINK-4732,1 53870U 22114BE  24219.76031110 -.00004239  00000-0 -24848-3 0  9999,2 53870  53.2172 347.4544 0001754 110.0578 250.0603 15.08828040105306,6917.917,95.438,540.995,538.569,0.0
53870.0,STARLINK-4732,PAYLOAD,2024-08-07 11:44:05,15.08841624,0.0001702,53.2192,344.1844,105.4981,254.6199,0.00018207,2.611e-05,0.0,0 STARLINK-4732,1 53870U 22114BE  24220.48895011  .00002611  00000-0  18207-3 0  9990,2 53870  53.2192 344.1844 0001702 105.4981 254.6199 15.08841624105419,6917.875,95.437,540.918,538.563,0.0
53870.0,STARLINK-4732,PAYLOAD,2024-08-08 13:10:16,15.08841507,0.0001632,53.2189,339.4275,108.2902,251.8268,0.00037574,5.697e-05,0.0,0 STARLINK-4732,1 53870U 22114BE  24221.54879741  .00005697  00000-0  37574-3 0  9995,2 53870  53.2189 339.4275 0001632 108.2902 251.8268 15.08841507106110,6917.876,95.437,540.87,538.612,0.0
53870.0,STARLINK-4732,PAYLOAD,2024-08-09 14:36:25,15.08854765,0.0001621,53.2191,334.6818,109.0664,251.0504,0.00040956,6.239e-05,0.0,0 STARLINK-4732,1 53870U 22114BE  24222.60863000  .00006239  00000-0  40956-3 0  9995,2 53870  53.2191 334.6818 0001621 109.0664 251.0504 15.08854765106277,6917.835,95.437,540.822,538.579,0.0
53870.0,STARLINK-4732,PAYLOAD,2024-08-10 12:51:49,15.08851061,0.0001335,53.2176,330.5093,92.9337,267.1808,0.00026327,3.906e-05,0.0,0 STARLINK-4732,1 53870U 22114BE  24223.53598957  .00003906  00000-0  26327-3 0  9998,2 53870  53.2176 330.5093 0001335  92.9337 267.1808 15.08851061105875,6917.847,95.437,540.635,538.788,0.0
53870.0,STARLINK-4732,PAYLOAD,2024-08-10 16:02:35,15.08868581,0.0001237,53.2181,329.9158,103.3943,256.7187,0.0007679,0.00011964,0.0,0 STARLINK-4732,1 53870U 22114BE  24223.66846603  .00011964  00000-0  76790-3 0  9998,2 53870  53.2181 329.9158 0001237 103.3943 256.7187 15.08868581105897,6917.793,95.436,540.514,538.802,0.0
